GOES 1 (SMS-C)          
1 08366U 75100A   26095.64908297  .00000032  00000+0  00000+0 0  9996
2 08366   4.7923 278.3689 0004725   2.5215  22.4953  1.00244811184342
GOES 2                  
1 10061U 77048A   26095.81888227 -.00000063  00000+0  00000+0 0  9998
2 10061   6.5925 293.9749 0013723  51.6602 156.6190  0.99400116 45553
GOES 3                  
1 10953U 78062A   26095.68400979  .00000101  00000+0  00000+0 0  9996
2 10953   7.0668 299.8422 0002048   7.4679 185.4347  0.99358841127818
GOES 4                  
1 11964U 80074A   26095.78178878 -.00000105  00000+0  00000+0 0  9991
2 11964   8.1424 303.5088 0032709 104.5647 253.5248  0.99233386126716
GOES 5                  
1 12472U 81049A   26095.58340693 -.00000152  00000+0  00000+0 0  9995
2 12472   9.4893 316.1451 0004090 343.1145   8.6547  1.00206460122112
GOES 6                  
1 14050U 83041A   26095.65081632 -.00000033  00000+0  00000+0 0  9994
2 14050  10.3071 321.7012 0001699 311.3325  39.5544  1.00221027215286
GOES 7                  
1 17561U 87022A   26094.42684082  .00000000  00000+0  00000+0 0  9992
2 17561  12.9934 338.1585 0004058  24.8650 168.6782  0.99907334126220
GOES 8                  
1 23051U 94022A   26093.98239034 -.00000113  00000+0  00000+0 0  9990
2 23051  14.3674  14.2407 0005851  25.8156 163.3379  0.98906605123395
GOES 9                  
1 23581U 95025A   26094.52360547 -.00000164  00000+0  00000+0 0  9993
2 23581  13.8983  15.0896 0002777 195.7774 285.3709  0.98799732112030
GOES 10                 
1 24786U 97019A   26094.15947685 -.00000261  00000+0  00000+0 0  9997
2 24786  13.0402  21.6274 0030022 239.6985 317.4901  0.99127384105330
GOES 11                 
1 26352U 00022A   26095.70162221 -.00000285  00000+0  00000+0 0  9999
2 26352  11.6498  47.1314 0005032 263.6622 276.8347  0.99044683 51754
GOES 12                 
1 26871U 01031A   26095.63564958 -.00000226  00000+0  00000+0 0  9996
2 26871  12.0547  37.8721 0008473 302.5490 250.8366  0.99140883 90043
EWS-G1 (GOES 13)        
1 29155U 06018A   26095.83112044  .00000052  00000+0  00000+0 0  9997
2 29155   4.3454  77.2846 0061865 275.1217 216.4528  0.98784823 42530
GOES 14                 
1 35491U 09033A   26095.78109544  .00000045  00000+0  00000+0 0  9994
2 35491   1.5030  83.9171 0001844 299.1245 274.7211  1.00112185  5863
EWS-G2 (GOES 15)        
1 36411U 10008A   26095.80732296  .00000024  00000+0  00000+0 0  9997
2 36411   1.0872  84.2709 0003425  17.9810  85.7619  1.00271609 58910
GOES 16                 
1 41866U 16071A   26095.65298300 -.00000089  00000+0  00000+0 0  9991
2 41866   0.1757  85.2897 0001814 247.8363 351.2025  1.00272283 34373
GOES 17                 
1 43226U 18022A   26095.58462028 -.00000181  00000+0  00000+0 0  9996
2 43226   0.7512  86.7858 0001188 260.2628 327.7985  1.00271532 29698
